STARLINK-37232          
1 69515U 26133H   26187.16668981  .00040299  00000+0  72915-3 0  9990
2 69515  53.1594 227.7507 0001176 101.9532  65.4063 15.49299367  4925
STARLINK-37323          
1 69516U 26133J   26187.16668981 -.02507293  00000+0 -30853-1 0  9990
2 69516  53.1594 227.0250 0001441  81.2197  83.9872 15.63227992  4920
STARLINK-37357          
1 69517U 26133K   26187.16668981  .00036038  00000+0  65374-3 0  9999
2 69517  53.1601 228.0216 0001134  90.2553 302.7919 15.49277809  4928
STARLINK-37408          
1 69518U 26133L   26187.16668981 -.02114293  00000+0 -38036-1 0  9997
2 69518  53.1603 227.2912 0000954  97.0868 296.8813 15.52621890  4921
STARLINK-37570          
1 69519U 26133M   26187.16668981  .00053659  00000+0  96630-3 0  9998
2 69519  53.1594 227.7773 0000952  83.8210  68.6495 15.49307052  4921
STARLINK-37510          
1 69520U 26133N   26187.16668981  .00048639  00000+0  87670-3 0  9996
2 69520  53.1595 227.7266 0000653 117.2938  61.0710 15.49323127  4926
STARLINK-37586          
1 69521U 26133P   26187.16668981 -.02454984  00000+0 -31863-1 0  9996
2 69521  53.1596 226.8791 0001304  87.2225 147.5275 15.61798358  4922
STARLINK-37379          
1 69522U 26133Q   26187.16668981  .00041422  00000+0  74950-3 0  9998
2 69522  53.1605 227.4160 0001765  76.3755 254.0372 15.49285065  4978
STARLINK-37429          
1 69523U 26133R   26187.16668981  .00039377  00000+0  71286-3 0  9994
2 69523  53.1596 227.8383 0001400  69.6644  51.9192 15.49293473  4973
STARLINK-37352          
1 69524U 26133S   26187.16668981  .00042484  00000+0  76846-3 0  9995
2 69524  53.1604 227.3987 0001221  81.2653 257.0050 15.49282875  4976
STARLINK-37490          
1 69525U 26133T   26187.16668981 -.02530545  00000+0 -42222-1 0  9999
2 69525  53.1598 226.9510 0001357  78.1104 119.8786 15.54727964  4972
STARLINK-37438          
1 69526U 26133U   26187.16668981  .00042222  00000+0  76361-3 0  9999
2 69526  53.1600 227.5559 0000958  58.3484 201.5877 15.49289899  4978
STARLINK-37484          
1 69527U 26133V   26187.16668981 -.02491585  00000+0 -38853-1 0  9996
2 69527  53.1598 226.8771 0001542  92.1602 141.8305 15.57088328  4976
STARLINK-37523          
1 69528U 26133W   26187.16668981  .00033726  00000+0  61221-3 0  9999
2 69528  53.1604 227.3650 0001265  84.1155 269.5339 15.49290796  4973
STARLINK-37369          
1 69529U 26133X   26187.16668981  .00035621  00000+0  64673-3 0  9990
2 69529  53.1605 227.3236 0000884 103.4177 269.9850 15.49258812  4975
STARLINK-37670          
1 69530U 26133Y   26187.16668981  .00041333  00000+0  74761-3 0  9998
2 69530  53.1604 227.4914 0000759  73.4345 216.3070 15.49296703  4975
STARLINK-37897          
1 69531U 26133Z   26187.16668981 -.01906840  00000+0 -32862-1 0  9999
2 69531  53.1603 226.8373 0001405  76.2581 175.2172 15.54001722  4921
STARLINK-37933          
1 69532U 26133AA  26187.16668981 -.02232514  00000+0 -44837-1 0  9996
2 69532  53.1599 227.1539 0000697 110.0660 344.8323 15.49770534  4921
STARLINK-37890          
1 69533U 26133AB  26187.16668981 -.02839013  00000+0 -58457-1 0  9997
2 69533  53.1596 227.0040 0001133  59.2168 109.2226 15.49383656  4928
STARLINK-37407          
1 69534U 26133AC  26187.16668981 -.02473310  00000+0 -47534-1 0  9996
2 69534  53.1594 226.8726 0001697  89.0035 143.0628 15.50769320  4979
STARLINK-37888          
1 69535U 26133AD  26187.16668981 -.02488422  00000+0 -52684-1 0  9999
2 69535  53.1596 226.8914 0001579  76.8430 144.6536 15.48072253  4922
STARLINK-37889          
1 69536U 26133AE  26187.16668981  .00039543  00000+0  71589-3 0  9999
2 69536  53.1594 227.7991 0001068  93.0060  49.8219 15.49290758  4926
ZHUQUE-2E R/B           
1 69537U 26128C   26187.11698763  .00060762  00000+0  54834-3 0  9991
2 69537  54.5269 214.3738 0066580  36.3670 324.1860 15.64715750  4189
2026-134A               
1 69538U 26134A   26187.28225132  .00005442  00000+0  34364-3 0  9993
2 69538  97.6997 257.4606 0015396 201.8114 158.2460 15.09402709  3197
2026-134B               
1 69539U 26134B   26187.14748972  .00005882  00000+0  36949-3 0  9990
2 69539  97.6974 257.3239 0015464 204.9033 155.1451 15.09558598  3165
2026-134C               
1 69540U 26134C   26187.14705189  .00005702  00000+0  35809-3 0  9990
2 69540  97.6979 257.3260 0014862 205.9101 154.1385 15.09590548  3160
2026-134D               
1 69541U 26134D   26187.14625503  .00005887  00000+0  36881-3 0  9997
2 69541  97.7018 257.3372 0015936 205.6885 154.3554 15.09648659  3166
2026-134E               
1 69542U 26134E   26187.21223116  .00005653  00000+0  35413-3 0  9991
2 69542  97.7038 257.4092 0015684 206.0836 153.9604 15.09671123  3174
2026-134F               
1 69543U 26134F   26187.14531322  .00005861  00000+0  36664-3 0  9995
2 69543  97.6989 257.3311 0014940 207.9822 152.0605 15.09716266  3169
2026-134G               
1 69544U 26134G   26187.21042414  .00005980  00000+0  37308-3 0  9991
2 69544  97.7036 257.4107 0015426 208.6439 151.3944 15.09802364  3174
