OBJECT_NAME,OBJECT_ID,EPOCH,MEAN_MOTION,ECCENTRICITY,INCLINATION,RA_OF_ASC_NODE,ARG_OF_PERICENTER,MEAN_ANOMALY,EPHEMERIS_TYPE,CLASSIFICATION_TYPE,NORAD_CAT_ID,ELEMENT_SET_NO,REV_AT_EPOCH,BSTAR,MEAN_MOTION_DOT,MEAN_MOTION_DDOT
STARLINK-37232,2026-133H,2026-07-06T04:00:01.999584,15.49299367,.00011767,53.1594,227.7507,101.9532,65.4063,0,U,69515,999,492,.72914538E-3,.40299E-3,0
STARLINK-37323,2026-133J,2026-07-06T04:00:01.999584,15.63227992,.00014412,53.1594,227.0250,81.2197,83.9872,0,U,69516,999,492,-.30852682E-1,-.2507293E-1,0
STARLINK-37357,2026-133K,2026-07-06T04:00:01.999584,15.49277809,.00011348,53.1601,228.0216,90.2553,302.7919,0,U,69517,999,492,.65374118E-3,.36038E-3,0
STARLINK-37408,2026-133L,2026-07-06T04:00:01.999584,15.52621890,.00009546,53.1603,227.2912,97.0868,296.8813,0,U,69518,999,492,-.38036436E-1,-.2114293E-1,0
STARLINK-37570,2026-133M,2026-07-06T04:00:01.999584,15.49307052,.00009525,53.1594,227.7773,83.8210,68.6495,0,U,69519,999,492,.96629612E-3,.53659E-3,0
STARLINK-37510,2026-133N,2026-07-06T04:00:01.999584,15.49323127,.00006539,53.1595,227.7266,117.2938,61.0710,0,U,69520,999,492,.87670403E-3,.48639E-3,0
STARLINK-37586,2026-133P,2026-07-06T04:00:01.999584,15.61798358,.00013042,53.1596,226.8791,87.2225,147.5275,0,U,69521,999,492,-.31863437E-1,-.2454984E-1,0
STARLINK-37379,2026-133Q,2026-07-06T04:00:01.999584,15.49285065,.00017651,53.1605,227.4160,76.3755,254.0372,0,U,69522,999,497,.74949928E-3,.41422E-3,0
STARLINK-37429,2026-133R,2026-07-06T04:00:01.999584,15.49293473,.00014002,53.1596,227.8383,69.6644,51.9192,0,U,69523,999,497,.71286415E-3,.39377E-3,0
STARLINK-37352,2026-133S,2026-07-06T04:00:01.999584,15.49282875,.00012217,53.1604,227.3987,81.2653,257.0050,0,U,69524,999,497,.76845999E-3,.42484E-3,0
STARLINK-37490,2026-133T,2026-07-06T04:00:01.999584,15.54727964,.00013579,53.1598,226.9510,78.1104,119.8786,0,U,69525,999,497,-.42222169E-1,-.2530545E-1,0
STARLINK-37438,2026-133U,2026-07-06T04:00:01.999584,15.49289899,.00009584,53.1600,227.5559,58.3484,201.5877,0,U,69526,999,497,.76361178E-3,.42222E-3,0
STARLINK-37484,2026-133V,2026-07-06T04:00:01.999584,15.57088328,.00015427,53.1598,226.8771,92.1602,141.8305,0,U,69527,999,497,-.38853421E-1,-.2491585E-1,0
STARLINK-37523,2026-133W,2026-07-06T04:00:01.999584,15.49290796,.00012652,53.1604,227.3650,84.1155,269.5339,0,U,69528,999,497,.61221178E-3,.33726E-3,0
STARLINK-37369,2026-133X,2026-07-06T04:00:01.999584,15.49258812,.00008842,53.1605,227.3236,103.4177,269.9850,0,U,69529,999,497,.64673124E-3,.35621E-3,0
STARLINK-37670,2026-133Y,2026-07-06T04:00:01.999584,15.49296703,.00007591,53.1604,227.4914,73.4345,216.3070,0,U,69530,999,497,.74760757E-3,.41333E-3,0
STARLINK-37897,2026-133Z,2026-07-06T04:00:01.999584,15.54001722,.00014057,53.1603,226.8373,76.2581,175.2172,0,U,69531,999,492,-.32861828E-1,-.190684E-1,0
STARLINK-37933,2026-133AA,2026-07-06T04:00:01.999584,15.49770534,.00006977,53.1599,227.1539,110.0660,344.8323,0,U,69532,999,492,-.44836868E-1,-.2232514E-1,0
STARLINK-37890,2026-133AB,2026-07-06T04:00:01.999584,15.49383656,.00011339,53.1596,227.0040,59.2168,109.2226,0,U,69533,999,492,-.58457001E-1,-.2839013E-1,0
STARLINK-37407,2026-133AC,2026-07-06T04:00:01.999584,15.50769320,.00016979,53.1594,226.8726,89.0035,143.0628,0,U,69534,999,497,-.47533863E-1,-.247331E-1,0
STARLINK-37888,2026-133AD,2026-07-06T04:00:01.999584,15.48072253,.00015792,53.1596,226.8914,76.8430,144.6536,0,U,69535,999,492,-.52684454E-1,-.2488422E-1,0
STARLINK-37889,2026-133AE,2026-07-06T04:00:01.999584,15.49290758,.00010684,53.1594,227.7991,93.0060,49.8219,0,U,69536,999,492,.71589332E-3,.39543E-3,0
ZHUQUE-2E R/B,2026-128C,2026-07-06T02:48:27.731232,15.64715750,.00665801,54.5269,214.3738,36.3670,324.1860,0,U,69537,999,418,.54833539E-3,.60762E-3,0
2026-134A,2026-134A,2026-07-06T06:46:26.514048,15.09402709,.00153961,97.6997,257.4606,201.8114,158.2460,0,U,69538,999,319,.34363762E-3,.5442E-4,0
2026-134B,2026-134B,2026-07-06T03:32:23.111808,15.09558598,.00154641,97.6974,257.3239,204.9033,155.1451,0,U,69539,999,316,.36948978E-3,.5882E-4,0
2026-134C,2026-134C,2026-07-06T03:31:45.283296,15.09590548,.00148626,97.6979,257.3260,205.9101,154.1385,0,U,69540,999,316,.3580875E-3,.5702E-4,0
2026-134D,2026-134D,2026-07-06T03:30:36.434592,15.09648659,.00159361,97.7018,257.3372,205.6885,154.3554,0,U,69541,999,316,.3688052E-3,.5887E-4,0
2026-134E,2026-134E,2026-07-06T05:05:36.772224,15.09671123,.00156844,97.7038,257.4092,206.0836,153.9604,0,U,69542,999,317,.35413451E-3,.5653E-4,0
2026-134F,2026-134F,2026-07-06T03:29:15.062208,15.09716266,.00149402,97.6989,257.3311,207.9822,152.0605,0,U,69543,999,316,.36664089E-3,.5861E-4,0
2026-134G,2026-134G,2026-07-06T05:03:00.645696,15.09802364,.00154267,97.7036,257.4107,208.6439,151.3944,0,U,69544,999,317,.37307933E-3,.598E-4,0
